NORAD_CAT_ID,OBJECT_NAME,OBJECT_TYPE,EPOCH,MEAN_MOTION,ECCENTRICITY,INCLINATION,RA_OF_ASC_NODE,ARG_OF_PERICENTER,MEAN_ANOMALY,BSTAR,MEAN_MOTION_DOT,MEAN_MOTION_DDOT,TLE_LINE0,TLE_LINE1,TLE_LINE2,SEMIMAJOR_AXIS,PERIOD,APOGEE,PERIGEE,DECAYED
53789.0,STARLINK-4666,PAYLOAD,2023-11-23 13:42:35,15.08838319,0.0001472,53.2184,71.815,93.256,266.8601,-7.3452e-05,-1.457e-05,0.0,0 STARLINK-4666,1 53789U 22111S   23327.57124467 -.00001457  00000-0 -73452-4 0  9996,2 53789  53.2184  71.8150 0001472  93.2560 266.8601 15.08838319 67310,6917.886,95.438,540.769,538.732,0.0
53789.0,STARLINK-4666,PAYLOAD,2023-11-24 11:57:59,15.08838107,0.0001695,53.2191,67.6519,97.6387,262.4798,-9.9831e-05,-1.876e-05,0.0,0 STARLINK-4666,1 53789U 22111S   23328.49860987 -.00001876  00000-0 -99831-4 0  9996,2 53789  53.2191  67.6519 0001695  97.6387 262.4798 15.08838107 67451,6917.886,95.438,540.924,538.579,0.0
53789.0,STARLINK-4666,PAYLOAD,2023-11-24 18:19:31,15.08846743,0.0001723,53.2192,66.4614,94.8989,265.22,-2.3063e-05,-6.55e-06,0.0,0 STARLINK-4666,1 53789U 22111S   23328.76356227 -.00000655  00000-0 -23063-4 0  9991,2 53789  53.2192  66.4614 0001723  94.8989 265.2200 15.08846743 66693,6917.86,95.437,540.917,538.533,0.0
53789.0,STARLINK-4666,PAYLOAD,2023-11-25 13:24:08,15.08852879,0.0001532,53.2177,62.8923,93.5315,266.5852,0.00027332,4.066e-05,0.0,0 STARLINK-4666,1 53789U 22111S   23329.55843417  .00004066  00000-0  27332-3 0  9991,2 53789  53.2177  62.8923 0001532  93.5315 266.5852 15.08852879 67613,6917.841,95.437,540.766,538.646,0.0
53789.0,STARLINK-4666,PAYLOAD,2023-11-26 11:39:32,15.08854598,0.0001584,53.2187,58.7288,100.0326,260.0845,0.00022811,3.346e-05,0.0,0 STARLINK-4666,1 53789U 22111S   23330.48579277  .00003346  00000-0  22811-3 0  9992,2 53789  53.2187  58.7288 0001584 100.0326 260.0845 15.08854598 66952,6917.836,95.437,540.797,538.605,0.0
53789.0,STARLINK-4666,PAYLOAD,2023-11-26 13:14:55,15.08858061,0.0001614,53.2186,58.4307,104.0725,256.0446,0.00025728,3.811e-05,0.0,0 STARLINK-4666,1 53789U 22111S   23330.55202923  .00003811  00000-0  25728-3 0  9998,2 53789  53.2186  58.4307 0001614 104.0725 256.0446 15.08858061 67762,6917.825,95.436,540.807,538.574,0.0
53789.0,STARLINK-4666,PAYLOAD,2023-11-27 11:30:21,15.08826358,0.0001727,53.2177,54.2674,125.6481,234.4672,-0.00039474,-6.563e-05,0.0,0 STARLINK-4666,1 53789U 22111S   23331.47941091 -.00006563  00000-0 -39474-3 0  9998,2 53789  53.2177  54.2674 0001727 125.6481 234.4672 15.08826358 67109,6917.922,95.438,540.982,538.592,0.0
53789.0,STARLINK-4666,PAYLOAD,2023-11-27 14:41:07,15.08820095,0.0001395,53.2182,53.672,106.3621,253.7525,-0.00036073,-6.021e-05,0.0,0 STARLINK-4666,1 53789U 22111S   23331.61189764 -.00006021  00000-0 -36073-3 0  9996,2 53789  53.2182  53.6720 0001395 106.3621 253.7525 15.08820095 67926,6917.941,95.439,540.771,538.841,0.0
53789.0,STARLINK-4666,PAYLOAD,2023-11-28 11:21:07,15.08869018,0.0001681,53.2197,49.815,86.4844,273.634,-0.0003218,-5.41e-05,0.0,0 STARLINK-4666,1 53789U 22111S   23332.47300478 -.00005410  00000-0 -32180-3 0  9994,2 53789  53.2197  49.8150 0001681  86.4844 273.6340 15.08869018 67259,6917.792,95.436,540.82,538.494,0.0
53789.0,STARLINK-4666,PAYLOAD,2023-11-28 12:56:30,15.08862167,0.0001492,53.2188,49.5115,84.1811,275.9351,0.00010397,1.368e-05,0.0,0 STARLINK-4666,1 53789U 22111S   23332.53923728  .00001368  00000-0  10397-3 0  9992,2 53789  53.2188  49.5115 0001492  84.1811 275.9351 15.08862167 68061,6917.813,95.436,540.71,538.645,0.0
53789.0,STARLINK-4666,PAYLOAD,2023-11-29 11:11:55,15.08833473,0.0001737,53.2218,45.3503,75.006,285.1124,0.00031739,4.766e-05,0.0,0 STARLINK-4666,1 53789U 22111S   23333.46661834  .00004766  00000-0  31739-3 0  9990,2 53789  53.2218  45.3503 0001737  75.0060 285.1124 15.08833473 67403,6917.9,95.438,540.967,538.564,0.0
53789.0,STARLINK-4666,PAYLOAD,2023-11-30 11:02:42,15.08854022,0.0001975,53.2196,40.8889,66.6573,293.4626,-1.743e-05,-5.66e-06,0.0,0 STARLINK-4666,1 53789U 22111S   23334.46021388 -.00000566  00000-0 -17430-4 0  9994,2 53789  53.2196  40.8889 0001975  66.6573 293.4626 15.08854022 67552,6917.838,95.437,541.069,538.336,0.0
53789.0,STARLINK-4666,PAYLOAD,2023-12-01 10:53:29,15.08845866,0.0001709,53.2199,36.4404,96.9795,263.1392,2.4787e-05,1.06e-06,0.0,0 STARLINK-4666,1 53789U 22111S   23335.45381591  .00000106  00000-0  24787-4 0  9990,2 53789  53.2199  36.4404 0001709  96.9795 263.1392 15.08845866 67703,6917.862,95.437,540.91,538.545,0.0
53789.0,STARLINK-4666,PAYLOAD,2023-12-01 23:36:33,15.0885778,0.000164,53.2195,34.0546,106.6994,253.4178,0.0001164,1.566e-05,0.0,0 STARLINK-4666,1 53789U 22111S   23335.98372545  .00001566  00000-0  11640-3 0  9991,2 53789  53.2195  34.0546 0001640 106.6994 253.4178 15.08857780 67784,6917.826,95.436,540.826,538.557,0.0
53789.0,STARLINK-4666,PAYLOAD,2023-12-02 10:44:15,15.08873422,0.0001696,53.2185,31.9672,107.2913,252.8264,0.00067513,0.00010483,0.0,0 STARLINK-4666,1 53789U 22111S   23336.44739802  .00010483  00000-0  67513-3 0  9994,2 53789  53.2185  31.9672 0001696 107.2913 252.8264 15.08873422 68655,6917.778,95.435,540.816,538.47,0.0
53789.0,STARLINK-4666,PAYLOAD,2023-12-02 23:27:21,15.08838329,0.0001728,53.2189,29.5973,95.1483,264.9707,-0.00018983,-3.308e-05,0.0,0 STARLINK-4666,1 53789U 22111S   23336.97733080 -.00003308  00000-0 -18983-3 0  9991,2 53789  53.2189  29.5973 0001728  95.1483 264.9707 15.08838329 67932,6917.885,95.438,540.946,538.555,0.0
53789.0,STARLINK-4666,PAYLOAD,2023-12-03 10:35:05,15.08796773,0.0001562,53.2185,27.5121,87.6353,272.4818,-0.00078617,-0.00012763,0.0,0 STARLINK-4666,1 53789U 22111S   23337.44103339 -.00012763  00000-0 -78617-3 0  9997,2 53789  53.2185  27.5121 0001562  87.6353 272.4818 15.08796773 68001,6918.013,95.44,540.958,538.797,0.0
53789.0,STARLINK-4666,PAYLOAD,2023-12-04 02:28:56,15.08828257,0.0002316,53.219,24.5433,43.742,316.3755,4.8191e-05,4.79e-06,0.0,0 STARLINK-4666,1 53789U 22111S   23338.10343323  .00000479  00000-0  48191-4 0  9994,2 53789  53.2190  24.5433 0002316  43.7420 316.3755 15.08828257 68108,6917.916,95.438,541.383,538.179,0.0
53789.0,STARLINK-4666,PAYLOAD,2023-12-04 10:25:51,15.0885078,0.0001453,53.2184,23.047,68.1504,291.9643,0.00033847,5.104e-05,0.0,0 STARLINK-4666,1 53789U 22111S   23338.43462330  .00005104  00000-0  33847-3 0  9991,2 53789  53.2184  23.0470 0001453  68.1504 291.9643 15.08850780 68156,6917.847,95.437,540.718,538.707,0.0
53789.0,STARLINK-4666,PAYLOAD,2023-12-05 02:19:43,15.08833946,0.0001847,53.219,20.077,89.588,270.5324,0.00068404,0.00010613,0.0,0 STARLINK-4666,1 53789U 22111S   23339.09703397  .00010613  00000-0  68404-3 0  9993,2 53789  53.2190  20.0770 0001847  89.5880 270.5324 15.08833946 68259,6917.899,95.438,541.042,538.486,0.0
53789.0,STARLINK-4666,PAYLOAD,2023-12-05 10:16:39,15.0884087,0.0001935,53.219,18.5899,75.9674,284.1533,0.00061481,9.51e-05,0.0,0 STARLINK-4666,1 53789U 22111S   23339.42823244  .00009510  00000-0  61481-3 0  9996,2 53789  53.2190  18.5899 0001935  75.9674 284.1533 15.08840870 69103,6917.878,95.437,541.081,538.404,0.0
53789.0,STARLINK-4666,PAYLOAD,2023-12-06 11:42:48,15.08853148,0.0001954,53.2196,13.8299,74.9377,285.1831,8.6087e-06,-1.51e-06,0.0,0 STARLINK-4666,1 53789U 22111S   23340.48806166 -.00000151  00000-0  86087-5 0  9992,2 53789  53.2196  13.8299 0001954  74.9377 285.1831 15.08853148 68463,6917.84,95.437,541.057,538.353,0.0
53789.0,STARLINK-4666,PAYLOAD,2023-12-07 08:22:49,15.08843952,0.0001751,53.2207,9.9593,104.8768,255.2418,-0.00012184,-2.227e-05,0.0,0 STARLINK-4666,1 53789U 22111S   23341.34918334 -.00002227  00000-0 -12184-3 0  9991,2 53789  53.2207   9.9593 0001751 104.8768 255.2418 15.08843952 68596,6917.868,95.437,540.945,538.522,0.0
53789.0,STARLINK-4666,PAYLOAD,2023-12-08 08:13:36,15.08844965,0.0001774,53.2187,5.5056,79.1825,280.9367,7.324e-05,8.78e-06,0.0,0 STARLINK-4666,1 53789U 22111S   23342.34278416  .00000878  00000-0  73240-4 0  9991,2 53789  53.2187   5.5056 0001774  79.1825 280.9367 15.08844965 69541,6917.865,95.437,540.957,538.503,0.0
53789.0,STARLINK-4666,PAYLOAD,2023-12-09 01:42:51,15.08841272,0.0001866,53.2191,2.2351,90.2058,269.9147,0.00010504,1.384e-05,0.0,0 STARLINK-4666,1 53789U 22111S   23343.07142538  .00001384  00000-0  10504-3 0  9993,2 53789  53.2191   2.2351 0001866  90.2058 269.9147 15.08841272 68856,6917.877,95.437,541.032,538.451,0.0
53789.0,STARLINK-4666,PAYLOAD,2023-12-09 08:04:23,15.08841818,0.0001867,53.2192,1.0453,96.6015,263.519,9.9865e-05,1.302e-05,0.0,0 STARLINK-4666,1 53789U 22111S   23343.33638460  .00001302  00000-0  99865-4 0  9994,2 53789  53.2192   1.0453 0001867  96.6015 263.5190 15.08841818 69698,6917.875,95.437,541.031,538.448,0.0
53789.0,STARLINK-4666,PAYLOAD,2023-12-10 11:05:57,15.08838644,0.0001907,53.2191,355.9902,99.6298,260.491,3.8576e-05,3.26e-06,0.0,0 STARLINK-4666,1 53789U 22111S   23344.46246843  .00000326  00000-0  38576-4 0  9996,2 53789  53.2191 355.9902 0001907  99.6298 260.4910 15.08838644 69068,6917.885,95.438,541.069,538.43,0.0
53789.0,STARLINK-4666,PAYLOAD,2023-12-11 06:10:34,15.08838693,0.0001911,53.2189,352.4216,107.0657,253.0545,4.9304e-05,4.97e-06,0.0,0 STARLINK-4666,1 53789U 22111S   23345.25734816  .00000497  00000-0  49304-4 0  9996,2 53789  53.2189 352.4216 0001911 107.0657 253.0545 15.08838693 69980,6917.884,95.438,541.071,538.427,0.0
53789.0,STARLINK-4666,PAYLOAD,2023-12-12 07:36:45,15.08835721,0.0001661,53.2183,347.6641,90.7811,269.3371,6.5843e-05,7.6e-06,0.0,0 STARLINK-4666,1 53789U 22111S   23346.31719331  .00000760  00000-0  65843-4 0  9998,2 53789  53.2183 347.6641 0001661  90.7811 269.3371 15.08835721 69340,6917.893,95.438,540.908,538.609,0.0
53789.0,STARLINK-4666,PAYLOAD,2023-12-13 07:27:32,15.08842852,0.0001695,53.2184,343.2024,84.0515,276.0671,0.00011597,1.558e-05,0.0,0 STARLINK-4666,1 53789U 22111S   23347.31078948  .00001558  00000-0  11597-3 0  9993,2 53789  53.2184 343.2024 0001695  84.0515 276.0671 15.08842852 69499,6917.872,95.437,540.909,538.564,0.0
